{
  "norad_id": 67794,
  "name": "KUIPER-00276",
  "history": [
    {
      "epoch": "2026-03-28T19:55:08.876640",
      "apogee_km": 489.78159849626445,
      "perigee_km": 465.1917104599088,
      "latitude_deg": 36.08952687409526,
      "longitude_deg": -40.92347040004097,
      "semi_major_axis_km": 6855.623654478086,
      "eccentricity": 0.00179341,
      "inclination_deg": 51.8845,
      "raan_deg": 128.3264,
      "arg_perigee_deg": 126.6992,
      "mean_anomaly_deg": 233.5643,
      "mean_motion_rev_day": 15.29439524
    }
  ]
}